QZS-1R                  
1 49336U 21096A   24284.78948052 -.00000187  00000+0  00000+0 0  9991
2 49336  36.1830  88.7784 0745862 270.0996  80.7832  1.00282581 10843
